EUTELSAT 7A             
1 28187U 04008A   25200.67125310  .00000102  00000+0  00000+0 0  9993
2 28187   4.9815  76.0030 0001576  79.8966 244.2336  1.00272803 78018
EUTELSAT 174A           
1 28924U 05052A   25201.13566919  .00000008  00000+0  00000+0 0  9993
2 28924   3.3742  80.6888 0005954  41.9038  38.3591  1.00271733 71654
EUTELSAT HOTBIRD 13E    
1 28946U 06007B   25200.83984635 -.00000173  00000+0  00000+0 0  9997
2 28946   1.2100  89.6311 0006256 184.1724 317.7108  0.98118325 70987
EUTELSAT HOTBIRD 13B    
1 29270U 06032A   25200.94975351  .00000158  00000+0  00000+0 0  9995
2 29270   0.7998  85.9695 0003560  37.6248 189.3773  1.00272992 43974
EUTELSAT HOTBIRD 13C    
1 33459U 08065A   25201.12465361 -.00000101  00000+0  00000+0 0  9992
2 33459   2.0930  83.1854 0003146  44.8140 202.5008  1.00271442 60918
EUTELSAT 36B            
1 36101U 09065A   25200.93011140  .00000115  00000+0  00000+0 0  9994
2 36101   0.0526 346.1063 0005580 134.1948 202.9681  1.00269649 57374
EUTELSAT KA-SAT 9A      
1 37258U 10069A   25201.12890030  .00000064  00000+0  00000+0 0  9992
2 37258   0.0637 301.5119 0003847 190.9201 221.1171  1.00273555 53491
EUTELSAT 7 WEST A       
1 37816U 11051A   25201.12569362 -.00000058  00000+0  00000+0 0  9999
2 37816   0.0627 345.4775 0004642 152.7563 197.8406  1.00270882 50640
